OBJECT_NAME,OBJECT_ID,EPOCH,MEAN_MOTION,ECCENTRICITY,INCLINATION,RA_OF_ASC_NODE,ARG_OF_PERICENTER,MEAN_ANOMALY,EPHEMERIS_TYPE,CLASSIFICATION_TYPE,NORAD_CAT_ID,ELEMENT_SET_NO,REV_AT_EPOCH,BSTAR,MEAN_MOTION_DOT,MEAN_MOTION_DDOT
GSAT0216 (GALILEO 20),2017-079B,2026-07-06T01:51:17.358336,1.70474558,.0004839,55.0699,220.9866,276.6920,83.3236,0,U,43056,999,5332,0,.76E-6,0
GSAT0217 (GALILEO 21),2017-079C,2026-07-06T07:09:14.312448,1.70474346,.00036679,55.0683,220.9785,292.4751,67.5566,0,U,43057,999,5331,0,.77E-6,0
GSAT0218 (GALILEO 22),2017-079D,2026-07-05T08:16:48.241920,1.70474403,.0006103,55.0681,221.0021,274.7664,85.2358,0,U,43058,999,5332,0,.75E-6,0
BEIDOU-3 M7 (C27),2018-003A,2026-07-05T14:34:22.092960,1.86228486,.0004481,54.3105,301.6730,97.3589,262.7166,0,U,43107,999,5769,0,-.6E-6,0
BEIDOU-3 M8 (C28),2018-003B,2026-07-04T11:28:00.846048,1.86231096,.00029594,54.3040,301.6942,257.8865,102.1041,0,U,43108,999,5768,0,-.59E-6,0
BEIDOU-3 M4 (C22),2018-018A,2026-07-07T01:38:57.124608,1.86231345,.0007428,56.6676,62.4940,26.7445,333.3571,0,U,43207,999,5711,0,-.42E-6,0
BEIDOU-3 M3 (C21),2018-018B,2026-07-06T14:21:28.890720,1.86231254,.000788,56.6666,62.5134,344.5989,15.4415,0,U,43208,999,5710,0,-.41E-6,0
BEIDOU-3 M9 (C29),2018-029A,2026-07-06T06:42:06.020640,1.86228489,.00010312,54.1753,299.2817,180.8160,179.2113,0,U,43245,999,5625,0,-.59E-6,0
BEIDOU-3 M10 (C30),2018-029B,2026-07-07T06:53:51.804960,1.86229562,.0003315,54.1719,299.2724,35.7721,324.2760,0,U,43246,999,5625,0,-.61E-6,0
IRNSS-1I,2018-035A,2026-07-06T20:05:50.527968,1.00279237,.0018087,28.7973,73.8917,180.4002,27.0525,0,U,43286,999,3027,0,.79E-6,0
COSMOS 2527 (756),2018-053A,2026-07-07T06:18:40.051584,2.13102315,.0006718,65.5882,73.2382,232.6359,127.3649,0,U,43508,999,6270,0,-.19E-6,0
BEIDOU-2 IGSO-7 (C16),2018-057A,2026-07-01T21:23:21.693984,1.00246939,.01049468,55.1981,162.9292,237.8611,308.6338,0,U,43539,999,2927,0,-.33E-6,0
GSAT0221 (GALILEO 25),2018-060A,2026-07-06T10:08:01.391712,1.70476116,.0002573,57.1630,341.2618,291.0401,68.9323,0,U,43564,999,4949,0,-.71E-6,0
GSAT0222 (GALILEO 26),2018-060B,2026-07-06T01:19:41.121120,1.70475873,.000254,57.1664,341.2753,237.0992,122.8759,0,U,43565,999,4953,0,-.71E-6,0
GSAT0219 (GALILEO 23),2018-060C,2026-07-06T20:42:25.013664,1.70476064,.0001764,57.1653,341.2551,304.6293,55.3544,0,U,43566,999,4952,0,-.71E-6,0
GSAT0220 (GALILEO 24),2018-060D,2026-07-07T02:00:38.927232,1.70475891,.0002043,57.1651,341.2500,295.4390,64.5404,0,U,43567,999,4951,0,-.71E-6,0
BEIDOU-3 M5 (C23),2018-062A,2026-07-06T10:29:55.719744,1.86228869,.0005707,54.0864,181.6496,290.6988,69.2445,0,U,43581,999,5399,0,.113E-5,0
BEIDOU-3 M6 (C24),2018-062B,2026-07-05T18:20:14.150688,1.86227983,.0005119,54.0861,181.6619,9.0782,350.9336,0,U,43582,999,5398,0,.106E-5,0
BEIDOU-3 M12 (C26),2018-067A,2026-07-05T03:58:20.758656,1.86227846,.0007887,54.1815,180.4305,30.0033,330.0410,0,U,43602,999,5345,0,.1E-5,0
BEIDOU-3 M11 (C25),2018-067B,2026-07-07T10:45:48.906144,1.86227306,.0004619,54.1790,180.3167,13.4684,346.5491,0,U,43603,999,5352,0,.119E-5,0
BEIDOU-3 M13 (C32),2018-072A,2026-07-06T20:47:25.189728,1.86231573,.0006454,56.6412,62.0108,332.0878,27.9414,0,U,43622,999,5302,0,-.42E-6,0
BEIDOU-3 M14 (C33),2018-072B,2026-07-06T04:40:25.295808,1.86231621,.00056028,56.6428,62.0271,6.4444,353.6283,0,U,43623,999,5300,0,-.4E-6,0
BEIDOU-3 M16 (C35),2018-078A,2026-07-07T10:10:07.711968,1.86232245,.0006752,54.0702,299.2766,40.2464,319.8292,0,U,43647,999,5253,0,-.62E-6,0
BEIDOU-3 M15 (C34),2018-078B,2026-07-06T11:29:52.466208,1.86232415,.000377,54.0667,299.3099,58.5392,301.5247,0,U,43648,999,5253,0,-.6E-6,0
BEIDOU-3 G1 (C59),2018-085A,2026-07-07T11:40:58.427040,1.00273551,.0008448,2.9166,96.8400,354.3285,169.4583,0,U,43683,999,2826,0,-.95E-6,0
COSMOS 2529 (757),2018-086A,2026-07-06T10:05:52.198656,2.13102124,.0012128,64.2965,191.9448,256.2465,103.6469,0,U,43687,999,5969,0,.113E-5,0
BEIDOU-3 M17 (C36),2018-093A,2026-07-07T09:29:21.213024,1.86228313,.0010157,54.1700,181.6109,293.2280,212.5865,0,U,43706,999,5191,0,.119E-5,0
BEIDOU-3 M18 (C37),2018-093B,2026-07-07T00:59:33.629280,1.86226750,.0008067,54.1709,181.6150,321.5361,38.4125,0,U,43707,999,5190,0,.117E-5,0
GPS BIII-1  (PRN 04),2018-109A,2026-07-07T04:44:36.191040,2.00562549,.0038544,55.6931,91.3977,197.4128,334.8050,0,U,43873,999,5547,0,-.15E-6,0
BEIDOU-3 IGSO-1 (C38),2019-023A,2026-07-07T09:30:26.017344,1.00285689,.0025584,58.7230,37.4430,223.9763,285.4774,0,U,44204,999,741,0,-.208E-5,0
BEIDOU-2 G8 (C01),2019-027A,2026-07-07T12:02:38.558688,1.00274850,.0009946,1.7064,74.5157,284.8366,251.2634,0,U,44231,999,2628,0,-.233E-5,0
